0 COSMOS 2251 DEB
1 37538U 93036BNT 13283.14823181  .00004763  00000-0  12836-2 0  2919
2 37538 074.0273 091.7754 0050424 236.9264 243.2359 14.47446953183075
0 COSMOS 2251 DEB
1 37538U 93036BNT 13286.44864535  .00004739  00000-0  12765-2 0  2939
2 37538 074.0270 085.6002 0050400 230.0984 161.0555 14.47472965183547
0 COSMOS 2251 DEB
1 37538U 93036BNT 13287.15699137  .00003054  00000-0  82581-3 0  2946
2 37538 074.0264 084.2748 0050740 228.4623 252.2339 14.47456998183653
0 COSMOS 2251 DEB
1 37538U 93036BNT 13287.83838087  .00006710  00000-0  18032-2 0  2952
2 37538 074.0271 082.9980 0050333 227.3311 202.6924 14.47486999183758
0 COSMOS 2251 DEB
1 37538U 93036BNT 13289.77206139  .00007871  00000-0  21128-2 0  2964
2 37538 074.0274 079.3797 0050273 223.3097 199.0318 14.47508552184035
0 COSMOS 2251 DEB
1 37538U 93036BNT 13291.42463616  .00006598  00000-0  17718-2 0  2970
2 37538 074.0281 076.2875 0050260 219.9485 170.5804 14.47528718184269
0 COSMOS 2251 DEB
1 37538U 93036BNT 13292.83035741  .00006821  00000-0  18308-2 0  2986
2 37538 074.0286 073.6568 0050230 217.1059 295.8563 14.47545027184476
0 COSMOS 2251 DEB
1 37538U 93036BNT 13295.03456255  .00007681  00000-0  20597-2 0  2997
2 37538 074.0289 069.5322 0050127 212.5877 262.2901 14.47568059184792
